{
"type": "FeatureCollection",
"name": "Plotboundary",
"crs": { "type": "name", "properties": { "name": "urn:ogc:def:crs:OGC:1.3:CRS84" } },
"features": [
{ "type": "Feature", "properties": { "Id": 0, "NAME": "Anganwadi Centre with Kitchen Shed Cmpleted by NMDC at Patel Para", "LAYER": "BUILDING" }, "geometry": { "type": "Polygon", "coordinates": [ [ [ 81.312615079643621, 18.606660727788512 ], [ 81.312662846749092, 18.606694762363936 ], [ 81.312687722315061, 18.60666129636369 ], [ 81.312675418980689, 18.606652702176632 ], [ 81.312685513009697, 18.606638902036078 ], [ 81.312694556191332, 18.606643366620773 ], [ 81.312708976319172, 18.606623701358817 ], [ 81.312692693181631, 18.606612701689041 ], [ 81.312679350330598, 18.606628574731193 ], [ 81.312649681552301, 18.606610016420507 ], [ 81.312615079643621, 18.606660727788512 ] ] ] } },
{ "type": "Feature", "properties": { "Id": 0, "NAME": "Kitchen and Store Complete By NMDC at Anganwadi Vichha Para", "LAYER": "BUILDING" }, "geometry": { "type": "Polygon", "coordinates": [ [ [ 81.305353936618786, 18.603665823242974 ], [ 81.305383325686265, 18.603691601637486 ], [ 81.305422375496079, 18.603649929702346 ], [ 81.305392986430064, 18.603624151313792 ], [ 81.305353936618786, 18.603665823242974 ] ] ] } },
{ "type": "Feature", "properties": { "Id": 0, "NAME": "Indian Overseas Bank cum Community hall Building Completed by NMDC At Patel para", "LAYER": "BUILDING" }, "geometry": { "type": "Polygon", "coordinates": [ [ [ 81.31400048615599, 18.605930170769085 ], [ 81.314043335127622, 18.605909653729277 ], [ 81.314031634862005, 18.6058888689466 ], [ 81.314044039495485, 18.605883467842862 ], [ 81.313996482116906, 18.605798177800036 ], [ 81.314008886745029, 18.605792776698646 ], [ 81.313986615489355, 18.605751563939517 ], [ 81.313896409156612, 18.605795833749628 ], [ 81.313918303542124, 18.605836688452946 ], [ 81.313930706860276, 18.605830569969449 ], [ 81.313977134308857, 18.605915144523212 ], [ 81.313989914485305, 18.605909384102237 ], [ 81.31400048615599, 18.605930170769085 ] ] ] } },
{ "type": "Feature", "properties": { "Id": 0, "NAME": "CC Road -110 Meters Complete By NMDC from Anganwadi Chowk Sarpanch Para to Bhima House", "LAYER": "CC ROAD" }, "geometry": { "type": "Polygon", "coordinates": [ [ [ 81.315242123850382, 18.604977403929201 ], [ 81.315197990928539, 18.605025216713084 ], [ 81.315270872116812, 18.605106637990342 ], [ 81.315403715823592, 18.605608348981715 ], [ 81.315427531037486, 18.605863854893688 ], [ 81.31548672034863, 18.605898663896703 ], [ 81.315457912771052, 18.605621649481105 ], [ 81.315332611737134, 18.605130208483757 ], [ 81.315310425361133, 18.605067115363763 ], [ 81.315242123850382, 18.604977403929201 ] ] ] } }
]
}
