{
"type": "FeatureCollection",
"name": "Plotboundary",
"crs": { "type": "name", "properties": { "name": "urn:ogc:def:crs:OGC:1.3:CRS84" } },
"features": [
{ "type": "Feature", "properties": { "OBJECTID": 1, "area_in_me": 757.40004653799997, "Para_Name": "Avagata Para", "Shape_Leng": 0.000320442647773, "Shape_Area": 6.0274708335599999e-09, "forlink": "Avagata Para1" }, "geometry": { "type": "Polygon", "coordinates": [ [ [ 81.33414769645907, 18.584870230177046 ], [ 81.33413107698766, 18.584812160053218 ], [ 81.334034465518243, 18.584837261930147 ], [ 81.334051084989653, 18.584895332953295 ], [ 81.33414769645907, 18.584870230177046 ] ] ] } },
{ "type": "Feature", "properties": { "OBJECTID": 2, "area_in_me": 699.95481896399997, "Para_Name": "Avagata Para", "Shape_Leng": 0.00031181454792100001, "Shape_Area": 5.5703546458600001e-09, "forlink": "Avagata Para2" }, "geometry": { "type": "Polygon", "coordinates": [ [ [ 81.334733826005333, 18.586784071128022 ], [ 81.334712254866702, 18.58673295815953 ], [ 81.33461849784544, 18.586768791646477 ], [ 81.334640068984072, 18.58681999454717 ], [ 81.334733826005333, 18.586784071128022 ] ] ] } },
{ "type": "Feature", "properties": { "OBJECTID": 3, "area_in_me": 705.83925131700005, "Para_Name": "Avagata Para", "Shape_Leng": 0.000320427246331, "Shape_Area": 5.6170987960400002e-09, "forlink": "Avagata Para3" }, "geometry": { "type": "Polygon", "coordinates": [ [ [ 81.332597365076367, 18.584856507421932 ], [ 81.332563705250834, 18.58481696423155 ], [ 81.332478087993422, 18.584883260454149 ], [ 81.332511747818955, 18.584922803644531 ], [ 81.332597365076367, 18.584856507421932 ] ] ] } },
{ "type": "Feature", "properties": { "OBJECTID": 4, "area_in_me": 425.60384138799998, "Para_Name": "Avagata Para", "Shape_Leng": 0.00023421583438200001, "Shape_Area": 3.3870129784600001e-09, "forlink": "Avagata Para4" }, "geometry": { "type": "Polygon", "coordinates": [ [ [ 81.334571241169897, 18.586127003958097 ], [ 81.334535316851429, 18.586073164245192 ], [ 81.33449057827761, 18.586100295891981 ], [ 81.334526503495397, 18.586154225537143 ], [ 81.334571241169897, 18.586127003958097 ] ] ] } },
{ "type": "Feature", "properties": { "OBJECTID": 5, "area_in_me": 412.25008705, "Para_Name": "Avagata Para", "Shape_Leng": 0.00022939280893899999, "Shape_Area": 3.28072206253e-09, "forlink": "Avagata Para5" }, "geometry": { "type": "Polygon", "coordinates": [ [ [ 81.333844179765151, 18.586698916122145 ], [ 81.333833687374806, 18.586645348903801 ], [ 81.333774511984188, 18.586655917736437 ], [ 81.333785004374533, 18.586709484055518 ], [ 81.333844179765151, 18.586698916122145 ] ] ] } },
{ "type": "Feature", "properties": { "OBJECTID": 6, "area_in_me": 705.86756395500004, "Para_Name": "Vicha Para", "Shape_Leng": 0.00031669047708700001, "Shape_Area": 5.6180163476299998e-09, "forlink": "Vicha Para6" }, "geometry": { "type": "Polygon", "coordinates": [ [ [ 81.306040275338489, 18.603611335394874 ], [ 81.306009542806237, 18.603567160695945 ], [ 81.305921208696873, 18.603623165976387 ], [ 81.305951941229182, 18.603667251642378 ], [ 81.306040275338489, 18.603611335394874 ] ] ] } },
{ "type": "Feature", "properties": { "OBJECTID": 7, "area_in_me": 943.02102396299995, "Para_Name": "Vicha Para", "Shape_Leng": 0.00035802070189400002, "Shape_Area": 7.5054473642899996e-09, "forlink": "Vicha Para7" }, "geometry": { "type": "Polygon", "coordinates": [ [ [ 81.30668682403774, 18.602144650854996 ], [ 81.306614948421213, 18.602058964349794 ], [ 81.306561544879457, 18.602099698242512 ], [ 81.306633336859079, 18.602185382049811 ], [ 81.30668682403774, 18.602144650854996 ] ] ] } },
{ "type": "Feature", "properties": { "OBJECTID": 8, "area_in_me": 569.13293940799997, "Para_Name": "Vicha Para", "Shape_Leng": 0.000270137969979, "Shape_Area": 4.5296700498399998e-09, "forlink": "Vicha Para8" }, "geometry": { "type": "Polygon", "coordinates": [ [ [ 81.304413802854754, 18.601669598373292 ], [ 81.304403390504149, 18.601608489440309 ], [ 81.304331176742494, 18.601619701288257 ], [ 81.304341588193779, 18.601680810221239 ], [ 81.304413802854754, 18.601669598373292 ] ] ] } },
{ "type": "Feature", "properties": { "OBJECTID": 9, "area_in_me": 391.84651934599998, "Para_Name": "Vicha Para", "Shape_Leng": 0.00023578782293, "Shape_Area": 3.11872316942e-09, "forlink": "Vicha Para9" }, "geometry": { "type": "Polygon", "coordinates": [ [ [ 81.303871945134233, 18.60431864049292 ], [ 81.30385296764041, 18.604283271955467 ], [ 81.303783104706554, 18.604317405723748 ], [ 81.303802082200377, 18.604352774261201 ], [ 81.303871945134233, 18.60431864049292 ] ] ] } },
{ "type": "Feature", "properties": { "OBJECTID": 10, "area_in_me": 380.22961177299999, "Para_Name": "Vicha Para", "Shape_Leng": 0.000221200195358, "Shape_Area": 3.02620708646e-09, "forlink": "Vicha Para10" }, "geometry": { "type": "Polygon", "coordinates": [ [ [ 81.305100586323078, 18.601388692434284 ], [ 81.305085219607236, 18.601329779645653 ], [ 81.305036854067623, 18.601341285571948 ], [ 81.305052219884089, 18.601400199259842 ], [ 81.305100586323078, 18.601388692434284 ] ] ] } },
{ "type": "Feature", "properties": { "OBJECTID": 11, "area_in_me": 449.51076429099999, "Para_Name": "Vicha Para", "Shape_Leng": 0.00024754521026400001, "Shape_Area": 3.5776186923899999e-09, "forlink": "Vicha Para11" }, "geometry": { "type": "Polygon", "coordinates": [ [ [ 81.304010075604538, 18.602812740115894 ], [ 81.303985556488271, 18.602773702344564 ], [ 81.303918128918554, 18.602812259877965 ], [ 81.30394264803482, 18.602851297649295 ], [ 81.304010075604538, 18.602812740115894 ] ] ] } },
{ "type": "Feature", "properties": { "OBJECTID": 12, "area_in_me": 406.81590340399998, "Para_Name": "Vicha Para", "Shape_Leng": 0.000234992832503, "Shape_Area": 3.2377990233299999e-09, "forlink": "Vicha Para12" }, "geometry": { "type": "Polygon", "coordinates": [ [ [ 81.306131967516365, 18.602464805906095 ], [ 81.30610753293638, 18.60239568311431 ], [ 81.306065465348979, 18.60240918733416 ], [ 81.30608989992902, 18.602478310125946 ], [ 81.306131967516365, 18.602464805906095 ] ] ] } },
{ "type": "Feature", "properties": { "OBJECTID": 13, "area_in_me": 362.87073073300002, "Para_Name": "Vicha Para", "Shape_Leng": 0.00022420302011400001, "Shape_Area": 2.8880197624500001e-09, "forlink": "Vicha Para13" }, "geometry": { "type": "Polygon", "coordinates": [ [ [ 81.303917960745366, 18.602493394454655 ], [ 81.303947014243363, 18.602427643221233 ], [ 81.303909731948636, 18.602412626341675 ], [ 81.303880678450582, 18.602478467507297 ], [ 81.303917960745366, 18.602493394454655 ] ] ] } },
{ "type": "Feature", "properties": { "OBJECTID": 14, "area_in_me": 453.88652529199999, "Para_Name": "Vicha Para", "Shape_Leng": 0.00025500909324799998, "Shape_Area": 3.6124277763200002e-09, "forlink": "Vicha Para14" }, "geometry": { "type": "Polygon", "coordinates": [ [ [ 81.306470272684976, 18.600730855444681 ], [ 81.306450708833211, 18.600693035355334 ], [ 81.30637379431522, 18.600729000143303 ], [ 81.30639327453008, 18.600766816635314 ], [ 81.306470272684976, 18.600730855444681 ] ] ] } },
{ "type": "Feature", "properties": { "OBJECTID": 15, "area_in_me": 649.06599332799999, "Para_Name": "Vicha Para", "Shape_Leng": 0.00031678027616, "Shape_Area": 5.1658778855600004e-09, "forlink": "Vicha Para15" }, "geometry": { "type": "Polygon", "coordinates": [ [ [ 81.302401698379754, 18.603984776176503 ], [ 81.302361979821569, 18.604007998470422 ], [ 81.302422774891227, 18.604102515418788 ], [ 81.302462493449354, 18.604079293124926 ], [ 81.302401698379754, 18.603984776176503 ] ] ] } },
{ "type": "Feature", "properties": { "OBJECTID": 16, "area_in_me": 455.34713223799997, "Para_Name": "Vicha Para", "Shape_Leng": 0.000241919819037, "Shape_Area": 3.62408127464e-09, "forlink": "Vicha Para16" }, "geometry": { "type": "Polygon", "coordinates": [ [ [ 81.306713022188262, 18.603137291053201 ], [ 81.306696984578252, 18.603084903745355 ], [ 81.306633253222117, 18.603102615893079 ], [ 81.306649207195221, 18.603154999603589 ], [ 81.306713022188262, 18.603137291053201 ] ] ] } },
{ "type": "Feature", "properties": { "OBJECTID": 17, "area_in_me": 506.39969984599998, "Para_Name": "Vicha Para", "Shape_Leng": 0.00025434608592300002, "Shape_Area": 4.0304107447900002e-09, "forlink": "Vicha Para17" }, "geometry": { "type": "Polygon", "coordinates": [ [ [ 81.306415358282209, 18.602496768710978 ], [ 81.306385213906538, 18.602444358020762 ], [ 81.306326100569152, 18.602475307289637 ], [ 81.306356329481105, 18.602527722476452 ], [ 81.306415358282209, 18.602496768710978 ] ] ] } },
{ "type": "Feature", "properties": { "OBJECTID": 18, "area_in_me": 495.390066348, "Para_Name": "Vicha Para", "Shape_Leng": 0.000272195155089, "Shape_Area": 3.9427704372700003e-09, "forlink": "Vicha Para18" }, "geometry": { "type": "Polygon", "coordinates": [ [ [ 81.304258542997445, 18.602206722961967 ], [ 81.304167015395478, 18.602229526171755 ], [ 81.304178183176646, 18.602269921919401 ], [ 81.304269542605368, 18.602247021582855 ], [ 81.304258542997445, 18.602206722961967 ] ] ] } },
{ "type": "Feature", "properties": { "OBJECTID": 19, "area_in_me": 603.852124076, "Para_Name": "Vicha Para", "Shape_Leng": 0.00030066027030400001, "Shape_Area": 4.8060663703100003e-09, "forlink": "Vicha Para19" }, "geometry": { "type": "Polygon", "coordinates": [ [ [ 81.306210309258404, 18.603869794255672 ], [ 81.306167821687666, 18.603887859836902 ], [ 81.306211904655754, 18.60398223289377 ], [ 81.306254392226492, 18.60396416731254 ], [ 81.306210309258404, 18.603869794255672 ] ] ] } },
{ "type": "Feature", "properties": { "OBJECTID": 20, "area_in_me": 755.83043095400001, "Para_Name": "Vicha Para", "Shape_Leng": 0.00031484128018099999, "Shape_Area": 6.0156636301599996e-09, "forlink": "Vicha Para20" }, "geometry": { "type": "Polygon", "coordinates": [ [ [ 81.304645726319279, 18.603450748853049 ], [ 81.304607267711276, 18.603397683456365 ], [ 81.304530519567891, 18.603448206469579 ], [ 81.304568978175837, 18.603501270966945 ], [ 81.304645726319279, 18.603450748853049 ] ] ] } },
{ "type": "Feature", "properties": { "OBJECTID": 21, "area_in_me": 398.67069784099999, "Para_Name": "Vicha Para", "Shape_Leng": 0.000236073645647, "Shape_Area": 3.1730230092100002e-09, "forlink": "Vicha Para21" }, "geometry": { "type": "Polygon", "coordinates": [ [ [ 81.302205203707217, 18.603097526629597 ], [ 81.30216792051317, 18.6031156515661 ], [ 81.30220411193028, 18.603183163672099 ], [ 81.302241396023646, 18.603164947904077 ], [ 81.302205203707217, 18.603097526629597 ] ] ] } },
{ "type": "Feature", "properties": { "OBJECTID": 22, "area_in_me": 808.06771294199996, "Para_Name": "Vicha Para", "Shape_Leng": 0.00035874632293700001, "Shape_Area": 6.4313491300900003e-09, "forlink": "Vicha Para22" }, "geometry": { "type": "Polygon", "coordinates": [ [ [ 81.304661932102533, 18.601856128557529 ], [ 81.304532283138428, 18.60186315765867 ], [ 81.304535222122865, 18.601912604183383 ], [ 81.30466487108697, 18.601905575082299 ], [ 81.304661932102533, 18.601856128557529 ] ] ] } },
{ "type": "Feature", "properties": { "OBJECTID": 23, "area_in_me": 671.84382451099998, "Para_Name": "Vicha Para", "Shape_Leng": 0.000293121179292, "Shape_Area": 5.3472202806900002e-09, "forlink": "Vicha Para23" }, "geometry": { "type": "Polygon", "coordinates": [ [ [ 81.302191516925006, 18.603430122002578 ], [ 81.302163721578552, 18.603367130788513 ], [ 81.30209158965522, 18.603396039495692 ], [ 81.302119384102355, 18.603459030709757 ], [ 81.302191516925006, 18.603430122002578 ] ] ] } },
{ "type": "Feature", "properties": { "OBJECTID": 24, "area_in_me": 573.30187359800004, "Para_Name": "Vicha Para", "Shape_Leng": 0.00029093961854400002, "Shape_Area": 4.5628169128899998e-09, "forlink": "Vicha Para24" }, "geometry": { "type": "Polygon", "coordinates": [ [ [ 81.305919193316186, 18.600966753912587 ], [ 81.305885270888609, 18.600873031964909 ], [ 81.305841775177839, 18.600887368057613 ], [ 81.305875698504735, 18.600981090904668 ], [ 81.305919193316186, 18.600966753912587 ] ] ] } },
{ "type": "Feature", "properties": { "OBJECTID": 25, "area_in_me": 360.004979601, "Para_Name": "Vicha Para", "Shape_Leng": 0.00021956651445, "Shape_Area": 2.8652093968400002e-09, "forlink": "Vicha Para25" }, "geometry": { "type": "Polygon", "coordinates": [ [ [ 81.306620993664012, 18.602556484594118 ], [ 81.306596979067365, 18.602493937645136 ], [ 81.306556591413596, 18.602508058799913 ], [ 81.306580606010243, 18.602570604849575 ], [ 81.306620993664012, 18.602556484594118 ] ] ] } },
{ "type": "Feature", "properties": { "OBJECTID": 26, "area_in_me": 551.92978805799999, "Para_Name": "Vicha Para", "Shape_Leng": 0.00027789906466499999, "Shape_Area": 4.3928064576400002e-09, "forlink": "Vicha Para26" }, "geometry": { "type": "Polygon", "coordinates": [ [ [ 81.303239983438516, 18.603091942739013 ], [ 81.303188173495471, 18.603018140774623 ], [ 81.303147111350142, 18.603044355112957 ], [ 81.303198921293244, 18.603118247009547 ], [ 81.303239983438516, 18.603091942739013 ] ] ] } },
{ "type": "Feature", "properties": { "OBJECTID": 27, "area_in_me": 865.90925277300005, "Para_Name": "Vicha Para", "Shape_Leng": 0.00035182870412600001, "Shape_Area": 6.8917530703599999e-09, "forlink": "Vicha Para27" }, "geometry": { "type": "Polygon", "coordinates": [ [ [ 81.303007467320811, 18.603366544430514 ], [ 81.302937603487692, 18.603272775718096 ], [ 81.302888732529027, 18.603305904044305 ], [ 81.302958596362203, 18.603399583723842 ], [ 81.303007467320811, 18.603366544430514 ] ] ] } },
{ "type": "Feature", "properties": { "OBJECTID": 28, "area_in_me": 575.67784268299999, "Para_Name": "Vicha Para", "Shape_Leng": 0.00027103933991699997, "Shape_Area": 4.5817960632100004e-09, "forlink": "Vicha Para28" }, "geometry": { "type": "Polygon", "coordinates": [ [ [ 81.301982426347934, 18.602200351265253 ], [ 81.301944722271173, 18.602141303578321 ], [ 81.301888125236871, 18.602174073974368 ], [ 81.301925828414312, 18.60223321249282 ], [ 81.301982426347934, 18.602200351265253 ] ] ] } },
{ "type": "Feature", "properties": { "OBJECTID": 29, "area_in_me": 435.22317673100002, "Para_Name": "Vicha Para", "Shape_Leng": 0.00023619817147, "Shape_Area": 3.4638590482899999e-09, "forlink": "Vicha Para29" }, "geometry": { "type": "Polygon", "coordinates": [ [ [ 81.304940373899171, 18.600980153811122 ], [ 81.304919549197905, 18.6009200008574 ], [ 81.304867656517217, 18.600936283982378 ], [ 81.304888481218484, 18.600996526868244 ], [ 81.304940373899171, 18.600980153811122 ] ] ] } },
{ "type": "Feature", "properties": { "OBJECTID": 30, "area_in_me": 571.40718593700001, "Para_Name": "Vicha Para", "Shape_Leng": 0.00027858608487400002, "Shape_Area": 4.5477711057800001e-09, "forlink": "Vicha Para30" }, "geometry": { "type": "Polygon", "coordinates": [ [ [ 81.306181256659727, 18.601964275630849 ], [ 81.306126845877316, 18.60189646135268 ], [ 81.306084526479765, 18.601927379145309 ], [ 81.306138937262176, 18.601995103491276 ], [ 81.306181256659727, 18.601964275630849 ] ] ] } },
{ "type": "Feature", "properties": { "OBJECTID": 31, "area_in_me": 397.356833483, "Para_Name": "Vicha Para", "Shape_Leng": 0.00023770082908500001, "Shape_Area": 3.1625349385800001e-09, "forlink": "Vicha Para31" }, "geometry": { "type": "Polygon", "coordinates": [ [ [ 81.306051023136263, 18.601458230712808 ], [ 81.306096197881288, 18.601393942676339 ], [ 81.30606219091743, 18.601372251028636 ], [ 81.306017099809367, 18.601436543561704 ], [ 81.306051023136263, 18.601458230712808 ] ] ] } },
{ "type": "Feature", "properties": { "OBJECTID": 32, "area_in_me": 612.26515573300003, "Para_Name": "Vicha Para", "Shape_Leng": 0.00030318832424599998, "Shape_Area": 4.8729461365300001e-09, "forlink": "Vicha Para32" }, "geometry": { "type": "Polygon", "coordinates": [ [ [ 81.304265008223581, 18.602015258197639 ], [ 81.304219160785692, 18.602021491398773 ], [ 81.30423461113844, 18.602125676958451 ], [ 81.304280458576386, 18.602119443757374 ], [ 81.304265008223581, 18.602015258197639 ] ] ] } },
{ "type": "Feature", "properties": { "OBJECTID": 33, "area_in_me": 406.52565928899998, "Para_Name": "Vicha Para", "Shape_Leng": 0.00023130607520699999, "Shape_Area": 3.2355477141800001e-09, "forlink": "Vicha Para33" }, "geometry": { "type": "Polygon", "coordinates": [ [ [ 81.301975960222421, 18.604212714745017 ], [ 81.301941111493136, 18.604154247120846 ], [ 81.301899293917359, 18.604176833594067 ], [ 81.301934141747324, 18.604235391150439 ], [ 81.301975960222421, 18.604212714745017 ] ] ] } },
{ "type": "Feature", "properties": { "OBJECTID": 34, "area_in_me": 452.81669125399998, "Para_Name": "Vicha Para", "Shape_Leng": 0.00025175257471199999, "Shape_Area": 3.6039864886200001e-09, "forlink": "Vicha Para34" }, "geometry": { "type": "Polygon", "coordinates": [ [ [ 81.305367103109404, 18.603030156616512 ], [ 81.30534107223275, 18.602952606277825 ], [ 81.305298920109124, 18.602965477374937 ], [ 81.305324950086458, 18.603043027713625 ], [ 81.305367103109404, 18.603030156616512 ] ] ] } },
{ "type": "Feature", "properties": { "OBJECTID": 35, "area_in_me": 676.25997215699999, "Para_Name": "Vicha Para", "Shape_Leng": 0.00029373326942200002, "Shape_Area": 5.3823531161400001e-09, "forlink": "Vicha Para35" }, "geometry": { "type": "Polygon", "coordinates": [ [ [ 81.30616614265341, 18.603349941146917 ], [ 81.306089648118814, 18.603353859493097 ], [ 81.306093678880245, 18.603424015605867 ], [ 81.306170173414841, 18.603420097259743 ], [ 81.30616614265341, 18.603349941146917 ] ] ] } },
{ "type": "Feature", "properties": { "OBJECTID": 36, "area_in_me": 381.817160124, "Para_Name": "Vicha Para", "Shape_Leng": 0.00022374986835200001, "Shape_Area": 3.0388966578499999e-09, "forlink": "Vicha Para36" }, "geometry": { "type": "Polygon", "coordinates": [ [ [ 81.303469139689128, 18.604685965884642 ], [ 81.303413382621557, 18.604651950826906 ], [ 81.303387436281241, 18.604690630668131 ], [ 81.303443108812473, 18.604724642128588 ], [ 81.303469139689128, 18.604685965884642 ] ] ] } },
{ "type": "Feature", "properties": { "OBJECTID": 37, "area_in_me": 778.1891193, "Para_Name": "Vicha Para", "Shape_Leng": 0.00033312339316900002, "Shape_Area": 6.1936462569699997e-09, "forlink": "Vicha Para37" }, "geometry": { "type": "Polygon", "coordinates": [ [ [ 81.302327551075678, 18.604981843737164 ], [ 81.302312939790397, 18.604927725234404 ], [ 81.302205623690611, 18.604954197678126 ], [ 81.302220318612854, 18.605008319778165 ], [ 81.302327551075678, 18.604981843737164 ] ] ] } },
{ "type": "Feature", "properties": { "OBJECTID": 38, "area_in_me": 1065.0628748300001, "Para_Name": "Patel Para", "Shape_Leng": 0.00040426592875300002, "Shape_Area": 8.4768218276400001e-09, "forlink": "Patel Para38" }, "geometry": { "type": "Polygon", "coordinates": [ [ [ 81.317389105323002, 18.605242746055922 ], [ 81.31738146558223, 18.605196943584133 ], [ 81.317249151926887, 18.605217061418273 ], [ 81.317260486082603, 18.605284502477843 ], [ 81.317362575322647, 18.605268916327475 ], [ 81.31735896544393, 18.605247372168549 ], [ 81.317389105323002, 18.605242746055922 ] ] ] } },
{ "type": "Feature", "properties": { "OBJECTID": 39, "area_in_me": 559.61494016999995, "Para_Name": "Patel Para", "Shape_Leng": 0.00027791188132299997, "Shape_Area": 4.4540245124499997e-09, "forlink": "Patel Para39" }, "geometry": { "type": "Polygon", "coordinates": [ [ [ 81.3180696447983, 18.605412764687401 ], [ 81.318051342695355, 18.605366020625411 ], [ 81.317967723731499, 18.605395843043766 ], [ 81.317986109471406, 18.605442591602355 ], [ 81.3180696447983, 18.605412764687401 ] ] ] } },
{ "type": "Feature", "properties": { "OBJECTID": 40, "area_in_me": 1045.13484507, "Para_Name": "Patel Para", "Shape_Leng": 0.00039673274516800001, "Shape_Area": 8.31815511744e-09, "forlink": "Patel Para40" }, "geometry": { "type": "Polygon", "coordinates": [ [ [ 81.314839423900366, 18.603968633345801 ], [ 81.314775279755395, 18.603987856354536 ], [ 81.314783423116523, 18.604012664153174 ], [ 81.314737246526761, 18.604026429176429 ], [ 81.314755045908726, 18.604080605235765 ], [ 81.314865450280365, 18.604047709833992 ], [ 81.314839423900366, 18.603968633345801 ] ] ] } },
{ "type": "Feature", "properties": { "OBJECTID": 41, "area_in_me": 331.30890318299998, "Para_Name": "Patel Para", "Shape_Leng": 0.00022160770323900001, "Shape_Area": 2.6368881273100001e-09, "forlink": "Patel Para41" }, "geometry": { "type": "Polygon", "coordinates": [ [ [ 81.315628038503235, 18.605120999434632 ], [ 81.315552560202548, 18.605131705863585 ], [ 81.315557933651746, 18.605165906181696 ], [ 81.315633327416208, 18.605155196155408 ], [ 81.315628038503235, 18.605120999434632 ] ] ] } },
{ "type": "Feature", "properties": { "OBJECTID": 42, "area_in_me": 416.35852258699998, "Para_Name": "Patel Para", "Shape_Leng": 0.000230309910823, "Shape_Area": 3.3138219781400002e-09, "forlink": "Patel Para42" }, "geometry": { "type": "Polygon", "coordinates": [ [ [ 81.317344525029853, 18.605767135345047 ], [ 81.317327818324202, 18.605711482598906 ], [ 81.317272827479087, 18.605726459008906 ], [ 81.317289534184738, 18.605782201687305 ], [ 81.317344525029853, 18.605767135345047 ] ] ] } },
{ "type": "Feature", "properties": { "OBJECTID": 43, "area_in_me": 509.195377194, "Para_Name": "Patel Para", "Shape_Leng": 0.00025476211671000002, "Shape_Area": 4.05269672076e-09, "forlink": "Patel Para43" }, "geometry": { "type": "Polygon", "coordinates": [ [ [ 81.314633054671788, 18.604575905054048 ], [ 81.314599890372676, 18.604522097716711 ], [ 81.31454389048821, 18.604553463371701 ], [ 81.314577137524907, 18.604607275205638 ], [ 81.314633054671788, 18.604575905054048 ] ] ] } },
{ "type": "Feature", "properties": { "OBJECTID": 44, "area_in_me": 813.71197481499996, "Para_Name": "Patel Para", "Shape_Leng": 0.000323712432853, "Shape_Area": 6.4764703781899999e-09, "forlink": "Patel Para44" }, "geometry": { "type": "Polygon", "coordinates": [ [ [ 81.31510078487338, 18.606403826575388 ], [ 81.315062164387427, 18.606323268004473 ], [ 81.314995669414657, 18.606352263046574 ], [ 81.31501338426034, 18.606389369973499 ], [ 81.315034122626741, 18.606432723591354 ], [ 81.31510078487338, 18.606403826575388 ] ] ] } },
{ "type": "Feature", "properties": { "OBJECTID": 45, "area_in_me": 484.18715769800002, "Para_Name": "Patel Para", "Shape_Leng": 0.00025418408706599999, "Shape_Area": 3.8537694073099996e-09, "forlink": "Patel Para45" }, "geometry": { "type": "Polygon", "coordinates": [ [ [ 81.311545507619144, 18.607961633122898 ], [ 81.311495633916422, 18.607959238228318 ], [ 81.311491604054368, 18.608036299335822 ], [ 81.311541561393994, 18.60803860789548 ], [ 81.311545507619144, 18.607961633122898 ] ] ] } },
{ "type": "Feature", "properties": { "OBJECTID": 46, "area_in_me": 1436.8026351599999, "Para_Name": "Patel Para", "Shape_Leng": 0.00043038335759399999, "Shape_Area": 1.14356329668e-08, "forlink": "Patel Para46" }, "geometry": { "type": "Polygon", "coordinates": [ [ [ 81.314387895884749, 18.607059112188324 ], [ 81.314373958191652, 18.606964425268075 ], [ 81.314255576833489, 18.606980244342878 ], [ 81.31426951362721, 18.607075021195328 ], [ 81.314387895884749, 18.607059112188324 ] ] ] } },
{ "type": "Feature", "properties": { "OBJECTID": 47, "area_in_me": 890.13653172500005, "Para_Name": "Patel Para", "Shape_Leng": 0.00034811212567399999, "Shape_Area": 7.0847476371999996e-09, "forlink": "Patel Para47" }, "geometry": { "type": "Polygon", "coordinates": [ [ [ 81.313858115159917, 18.607740460154162 ], [ 81.313749975281212, 18.607755135291313 ], [ 81.313759546765709, 18.607819351382034 ], [ 81.313867685745151, 18.607804676244882 ], [ 81.313858115159917, 18.607740460154162 ] ] ] } },
{ "type": "Feature", "properties": { "OBJECTID": 48, "area_in_me": 1064.16009874, "Para_Name": "Patel Para", "Shape_Leng": 0.00036836659782599998, "Shape_Area": 8.4698734021499997e-09, "forlink": "Patel Para48" }, "geometry": { "type": "Polygon", "coordinates": [ [ [ 81.311029812975562, 18.608100198865145 ], [ 81.311014783505527, 18.608012556334472 ], [ 81.310920662258809, 18.608027248558699 ], [ 81.310935690829524, 18.608114891089429 ], [ 81.311029812975562, 18.608100198865145 ] ] ] } },
{ "type": "Feature", "properties": { "OBJECTID": 49, "area_in_me": 442.57013386800003, "Para_Name": "Patel Para", "Shape_Leng": 0.00024322777580099999, "Shape_Area": 3.5224788541600001e-09, "forlink": "Patel Para49" }, "geometry": { "type": "Polygon", "coordinates": [ [ [ 81.31143845592004, 18.607539463475518 ], [ 81.311391941185207, 18.607529320022138 ], [ 81.311374645423598, 18.607601276577725 ], [ 81.311421160158488, 18.607611420031049 ], [ 81.31143845592004, 18.607539463475518 ] ] ] } },
{ "type": "Feature", "properties": { "OBJECTID": 50, "area_in_me": 1365.9103480900001, "Para_Name": "Patel Para", "Shape_Leng": 0.0004247296945, "Shape_Area": 1.0871508117699999e-08, "forlink": "Patel Para50" }, "geometry": { "type": "Polygon", "coordinates": [ [ [ 81.312011997655645, 18.607440935550812 ], [ 81.311925853395451, 18.607440637875186 ], [ 81.31192526523887, 18.607566899992491 ], [ 81.312011325862045, 18.607567194070782 ], [ 81.312011997655645, 18.607440935550812 ] ] ] } },
{ "type": "Feature", "properties": { "OBJECTID": 51, "area_in_me": 907.82386371699999, "Para_Name": "Patel Para", "Shape_Leng": 0.00034115456849000001, "Shape_Area": 7.2255091108800004e-09, "forlink": "Patel Para51" }, "geometry": { "type": "Polygon", "coordinates": [ [ [ 81.313763996611215, 18.6076010193716 ], [ 81.313725878846299, 18.607532071947617 ], [ 81.313643850783137, 18.607573372413242 ], [ 81.313681884011771, 18.607642227207066 ], [ 81.313763996611215, 18.6076010193716 ] ] ] } },
{ "type": "Feature", "properties": { "OBJECTID": 52, "area_in_me": 549.53139577499996, "Para_Name": "Patel Para", "Shape_Leng": 0.00028144349731800002, "Shape_Area": 4.37380147891e-09, "forlink": "Patel Para52" }, "geometry": { "type": "Polygon", "coordinates": [ [ [ 81.310882542695254, 18.607215205717239 ], [ 81.310837118838037, 18.60721768784606 ], [ 81.310841401409618, 18.607289293666042 ], [ 81.310910250807467, 18.607285558781541 ], [ 81.310907479996274, 18.607238365058549 ], [ 81.31088396991936, 18.607239613317574 ], [ 81.310882542695254, 18.607215205717239 ] ] ] } },
{ "type": "Feature", "properties": { "OBJECTID": 53, "area_in_me": 890.32078373000002, "Para_Name": "Patel Para", "Shape_Leng": 0.000364634493406, "Shape_Area": 7.0862663518200003e-09, "forlink": "Patel Para53" }, "geometry": { "type": "Polygon", "coordinates": [ [ [ 81.31314915980596, 18.609613734486288 ], [ 81.313128589612802, 18.609561405634395 ], [ 81.313009870109454, 18.609603885111255 ], [ 81.313030440302612, 18.609656213963149 ], [ 81.31314915980596, 18.609613734486288 ] ] ] } },
{ "type": "Feature", "properties": { "OBJECTID": 54, "area_in_me": 1226.6870140799999, "Para_Name": "Patel Para", "Shape_Leng": 0.00040449603861300002, "Shape_Area": 9.7633556348e-09, "forlink": "Patel Para54" }, "geometry": { "type": "Polygon", "coordinates": [ [ [ 81.31380328979003, 18.607033812460543 ], [ 81.313687341097989, 18.606994053432857 ], [ 81.313659299337246, 18.607068657592549 ], [ 81.313775162593743, 18.60710841212358 ], [ 81.31380328979003, 18.607033812460543 ] ] ] } }
]
}
