{
"type": "FeatureCollection",
"name": "Plotboundary",
"crs": { "type": "name", "properties": { "name": "urn:ogc:def:crs:OGC:1.3:CRS84" } },
"features": [
{ "type": "Feature", "properties": { "NAME": "MADAKAMIRA CHOWK VIA ANGANWADI CHOWK TO BUDHARAM HOUSE (DAMBARI KARAN)", "LAYER": "BT ROAD", "Shape_Leng": 1193.2896344400001 }, "geometry": { "type": "LineString", "coordinates": [ [ 81.311577965043526, 18.611183137344163 ], [ 81.311744387107865, 18.610755258047451 ], [ 81.311789296837759, 18.610626053646943 ], [ 81.311844225624938, 18.610489658751121 ], [ 81.311899396852183, 18.610348719972272 ], [ 81.311938348499595, 18.610253242692526 ], [ 81.311991539727757, 18.610126894078075 ], [ 81.312043282285885, 18.610031395582649 ], [ 81.312079268602588, 18.609960314418121 ], [ 81.312094250140234, 18.609923702740922 ], [ 81.312106941737014, 18.609869160128653 ], [ 81.312123335213585, 18.609781611477239 ], [ 81.312134480110728, 18.609704114972406 ], [ 81.312151616812343, 18.609611543361101 ], [ 81.312170205988139, 18.609490273771865 ], [ 81.312194763391091, 18.609341016106026 ], [ 81.312219285426735, 18.609172388984923 ], [ 81.312231863097765, 18.60905543368747 ], [ 81.312234669921764, 18.608944233702733 ], [ 81.312237628522738, 18.60891625061695 ], [ 81.312243573199822, 18.608875349573545 ], [ 81.312261470024694, 18.608787081021106 ], [ 81.31228389304863, 18.608705261463896 ], [ 81.312301778058043, 18.608610536422823 ], [ 81.312312867839822, 18.608502909642215 ], [ 81.312321748817297, 18.608421829926222 ], [ 81.31233891278562, 18.608344323417892 ], [ 81.312350830848516, 18.608278303837107 ], [ 81.312374714070629, 18.608172090608484 ], [ 81.312377626489805, 18.608133514499066 ], [ 81.312400846620946, 18.608061569308926 ], [ 81.312414253739433, 18.607986938580993 ], [ 81.312430641657045, 18.6078965203418 ], [ 81.312444048750734, 18.607821889610822 ], [ 81.312450737891595, 18.60777668298628 ], [ 81.312452110461535, 18.6077042243882 ], [ 81.312451207495911, 18.607621726114424 ], [ 81.312454860836453, 18.607562176739037 ], [ 81.312468981017702, 18.607466023141004 ], [ 81.312488290735288, 18.607327534959069 ], [ 81.312512152797254, 18.607209843510667 ], [ 81.312532344498649, 18.607142375404251 ], [ 81.312554055389242, 18.607082796057085 ], [ 81.312578770622665, 18.607020342163395 ], [ 81.312617756528695, 18.606944234180389 ], [ 81.312680037929425, 18.606852304947761 ], [ 81.312720549514083, 18.606787672640149 ], [ 81.312785832530793, 18.606691434052102 ], [ 81.312800845096987, 18.606672039605275 ], [ 81.312817801927707, 18.606663019048323 ], [ 81.31286666334978, 18.606640006449592 ], [ 81.312903252929814, 18.606625119614925 ], [ 81.312933826821478, 18.606612155807262 ], [ 81.312969899929527, 18.60658913940502 ], [ 81.313019492567889, 18.60655318751764 ], [ 81.313059553075846, 18.606516294943223 ], [ 81.313112626247175, 18.606463598160591 ], [ 81.313154174887117, 18.606417616160066 ], [ 81.313182210990846, 18.606388395706333 ], [ 81.313202242522465, 18.606370666790287 ], [ 81.313241817975438, 18.606342861916236 ], [ 81.313268863983041, 18.606320816990241 ], [ 81.313310451053582, 18.606295878313393 ], [ 81.313345522600017, 18.606273820025297 ], [ 81.313399142726311, 18.60624599175113 ], [ 81.31347682197989, 18.606208558226577 ], [ 81.313566524634595, 18.606162974239766 ], [ 81.313699334767065, 18.606101057589139 ], [ 81.313741432957016, 18.606081378822108 ], [ 81.313789551172334, 18.6060621682755 ], [ 81.313856224940366, 18.606041013757441 ], [ 81.313938956792441, 18.60602365852624 ], [ 81.313988090439977, 18.60601114187072 ], [ 81.314044241165959, 18.605995743944579 ], [ 81.314110416788566, 18.605976503206044 ], [ 81.314175087607268, 18.605957264954636 ], [ 81.314231738138687, 18.605940909620074 ], [ 81.314282882513794, 18.605930780831198 ], [ 81.314370641642768, 18.605919634396685 ], [ 81.314444862935545, 18.605911380081547 ], [ 81.314531127797309, 18.605905975181983 ], [ 81.314632437018929, 18.605898632072865 ], [ 81.314704157340543, 18.605894207910236 ], [ 81.314761828573921, 18.605887415902572 ], [ 81.314854592172594, 18.605870043505295 ], [ 81.314921285960182, 18.605859888548604 ], [ 81.314980449642718, 18.605846398345069 ], [ 81.315039611555704, 18.605831951606927 ], [ 81.315079725140023, 18.605824232351367 ], [ 81.315154953065473, 18.605817889111432 ], [ 81.315217651656624, 18.605817305926241 ], [ 81.315286875395259, 18.605819103094703 ], [ 81.315338057541496, 18.605829539117209 ], [ 81.315400288897592, 18.605847608775196 ], [ 81.3154650661359, 18.60588623930779 ], [ 81.315537372632448, 18.605927726760584 ], [ 81.315600642498325, 18.605964924992261 ], [ 81.315653337870728, 18.605979901857758 ], [ 81.315708275884887, 18.605986983667137 ], [ 81.315806088474972, 18.605987537069961 ], [ 81.315927982978948, 18.605990919584478 ], [ 81.315995687879877, 18.605985066887083 ], [ 81.316083699475953, 18.605974875750881 ], [ 81.316163418828253, 18.605956089823049 ], [ 81.316255901036143, 18.60592221725684 ], [ 81.31636491598961, 18.60587755603672 ], [ 81.31643860153001, 18.605850888846813 ], [ 81.316491225330594, 18.605827126579047 ], [ 81.316556642458465, 18.60580477757301 ], [ 81.316598761903165, 18.605796815493715 ], [ 81.316661195966304, 18.60578881925073 ], [ 81.316723636658281, 18.605784409922109 ], [ 81.316784565923669, 18.605776416168897 ], [ 81.316875573656517, 18.605759045732789 ], [ 81.317001926584126, 18.605732289705958 ], [ 81.31708390023897, 18.605712064818125 ], [ 81.317149345146802, 18.605704780734197 ], [ 81.317226062652395, 18.605690303749277 ], [ 81.317357679561283, 18.605662103840313 ], [ 81.317422358744821, 18.605647647060149 ], [ 81.317481783139897, 18.60563965561856 ], [ 81.317538200619239, 18.605633104006266 ], [ 81.317603626845511, 18.605615776347896 ], [ 81.317669043741517, 18.60559342695835 ], [ 81.31770963699573, 18.605573988978946 ], [ 81.317755465035376, 18.605537324818748 ], [ 81.317771975686881, 18.605491981351634 ], [ 81.317820319815254, 18.605397751391671 ], [ 81.317906929845137, 18.605258787639741 ], [ 81.318144372512634, 18.605173910744632 ], [ 81.318613779675033, 18.605061948597442 ] ] } },
{ "type": "Feature", "properties": { "NAME": "PATEL PARA ANGANWADI CHOWK TO AVAGATA PARA DAMBARI KARAN", "LAYER": "BT ROAD", "Shape_Leng": 4390.7511174399997 }, "geometry": { "type": "LineString", "coordinates": [ [ 81.312402758594303, 18.606454169555224 ], [ 81.312336274518671, 18.605914135572533 ], [ 81.3122825110798, 18.6056571601634 ], [ 81.312216098933575, 18.605340423238911 ], [ 81.312174973805057, 18.605137231042985 ], [ 81.311973596733864, 18.604790851843074 ], [ 81.312087008585564, 18.604691160520847 ], [ 81.312295858698661, 18.60451864085589 ], [ 81.312449136442439, 18.604403604321615 ], [ 81.312670026647879, 18.604232499052028 ], [ 81.312791711517619, 18.604121819021145 ], [ 81.312838246761558, 18.604060046233602 ], [ 81.312889212395618, 18.603952353142159 ], [ 81.312955209936632, 18.603836026386684 ], [ 81.312992695722571, 18.603714354463687 ], [ 81.313081764935376, 18.603508686420973 ], [ 81.313105529035425, 18.603337908193762 ], [ 81.313132268513684, 18.60314847288463 ], [ 81.313141641173587, 18.602993740272925 ], [ 81.313134716609028, 18.602841426050063 ], [ 81.313097702593623, 18.602349358263954 ], [ 81.313092907655005, 18.602195844839084 ], [ 81.313119723063522, 18.602048017988093 ], [ 81.31339874525743, 18.601352857549486 ], [ 81.313457636730774, 18.601194723058253 ], [ 81.313563491204135, 18.600990627847629 ], [ 81.313727141967306, 18.600765897561999 ], [ 81.313983488565498, 18.600321592598892 ], [ 81.314358856462874, 18.599969250640349 ], [ 81.314694307565802, 18.599640782426604 ], [ 81.31512637737444, 18.599101386717166 ], [ 81.31552740372463, 18.598559778004386 ], [ 81.315619803035531, 18.598333529523146 ], [ 81.315830858567651, 18.597541298306542 ], [ 81.315718527833582, 18.596962840783846 ], [ 81.315520597312997, 18.596488028394067 ], [ 81.315554086805221, 18.596313158160804 ], [ 81.315639536010707, 18.596208696119891 ], [ 81.315843417775511, 18.595999060481468 ], [ 81.316089255717571, 18.595751114610842 ], [ 81.316174542327502, 18.595727336336232 ], [ 81.316417877880767, 18.595637367951561 ], [ 81.316728365715846, 18.595602182998359 ], [ 81.316964910172473, 18.595620673689307 ], [ 81.317178681088421, 18.595563507646656 ], [ 81.317398416082057, 18.595439538038107 ], [ 81.317632505508271, 18.595211629063321 ], [ 81.317964757335687, 18.594819341574812 ], [ 81.318236900910748, 18.594384826614096 ], [ 81.318623470048919, 18.594040440544916 ], [ 81.319130650770049, 18.59382363818316 ], [ 81.319725105901654, 18.593375430169573 ], [ 81.319992998712451, 18.593040067303239 ], [ 81.320186632634332, 18.592740478691422 ], [ 81.32071018096822, 18.592004992472024 ], [ 81.321013075156444, 18.591544945876937 ], [ 81.322783335428966, 18.589485084373266 ], [ 81.3229438446849, 18.589142003826225 ], [ 81.323183430167134, 18.588702756447073 ], [ 81.323249820222955, 18.588409895579129 ], [ 81.323406663775557, 18.588197125823676 ], [ 81.323713400623234, 18.587965380943984 ], [ 81.324038877342005, 18.587771683029182 ], [ 81.32506112610973, 18.58738001505996 ], [ 81.325722035815531, 18.587300890986054 ], [ 81.325894742216192, 18.587249592129034 ], [ 81.326088736737034, 18.587078125431841 ], [ 81.327596141196338, 18.587358166928848 ], [ 81.327840810266395, 18.587377705520428 ], [ 81.328610050579954, 18.58725112970188 ], [ 81.329201079370293, 18.586964938888567 ], [ 81.330424696146622, 18.586142701188134 ], [ 81.3306374345389, 18.586040324795913 ], [ 81.330972473569091, 18.58592141724284 ], [ 81.331214258987899, 18.585851937723454 ], [ 81.331356812462658, 18.585649844223671 ], [ 81.331556951807769, 18.585366029404735 ], [ 81.331829084456487, 18.58506384439573 ], [ 81.332039202953723, 18.584768645236522 ], [ 81.332154827782347, 18.584762528690678 ], [ 81.332157361164391, 18.584760185281631 ], [ 81.33230866197492, 18.584452116268178 ], [ 81.3324545923588, 18.584209649638119 ], [ 81.332699478006077, 18.58386335387338 ], [ 81.33297630832368, 18.583858298498143 ], [ 81.333166975457544, 18.583901961568337 ], [ 81.333299502299866, 18.583964857637138 ], [ 81.333446124200123, 18.584054511239081 ], [ 81.333596754781254, 18.584142244591 ], [ 81.333685195590434, 18.584230087903236 ], [ 81.333837933156659, 18.584369469398823 ], [ 81.333860101156574, 18.584421082213652 ], [ 81.333946573380359, 18.584528059279162 ], [ 81.334055064695676, 18.584610127772173 ], [ 81.334259801955497, 18.584667156062718 ], [ 81.334416321269728, 18.584687921916895 ], [ 81.33462573102409, 18.584636468371684 ], [ 81.334925592820881, 18.584540670327023 ], [ 81.335350255690884, 18.584342633217823 ], [ 81.335604714641804, 18.584231407661356 ], [ 81.335915245211012, 18.584200653836188 ], [ 81.336285110413826, 18.584186067855466 ], [ 81.336788570078312, 18.584245122463226 ], [ 81.337539372190435, 18.584311189357624 ], [ 81.337807911263084, 18.584324395460413 ], [ 81.338686942219383, 18.584209325942798 ] ] } },
{ "type": "Feature", "properties": { "NAME": "CHOLNAR TO MADAKA MIRAS ROAD (ZILA PRASASAN NEW ROAD WORK GOING", "LAYER": "BT ROAD", "Shape_Leng": 2865.01024048 }, "geometry": { "type": "LineString", "coordinates": [ [ 81.3088014043215, 18.616350098663666 ], [ 81.30963139037874, 18.615026260643791 ], [ 81.310184405402552, 18.613985476901561 ], [ 81.310881723084975, 18.613094423672429 ], [ 81.31155733713058, 18.611234673358791 ], [ 81.311209559212571, 18.610972999560516 ], [ 81.310396865188451, 18.610765038210136 ], [ 81.309492909062186, 18.610383186637257 ], [ 81.308833799250635, 18.609933925444423 ], [ 81.308317745921073, 18.609556066182243 ], [ 81.307797758899909, 18.609235029022344 ], [ 81.306830674196817, 18.608955387513699 ], [ 81.305942483720486, 18.609023140506235 ], [ 81.3035023543097, 18.609705679130702 ], [ 81.301954536059341, 18.610135158766319 ], [ 81.301359195817142, 18.610304353257543 ], [ 81.300459225452087, 18.610380753194754 ], [ 81.300164667999596, 18.610424952251211 ], [ 81.299901019001666, 18.610261703859983 ], [ 81.299445628666035, 18.609840691878393 ], [ 81.298960455596927, 18.609303842149444 ], [ 81.298195026197106, 18.608488668964508 ], [ 81.297802364365126, 18.608018078745527 ], [ 81.297248532015516, 18.607693461270319 ], [ 81.297013808310979, 18.607523370108257 ], [ 81.296375593415391, 18.607176818678042 ], [ 81.295839678938052, 18.60694814838617 ], [ 81.294816481699783, 18.606506227156004 ], [ 81.294000409924763, 18.606239846953372 ], [ 81.293656896766521, 18.606088431073999 ], [ 81.293077877906768, 18.605630561900831 ] ] } },
{ "type": "Feature", "properties": { "NAME": "VICHA PARA TO MADAKAMIRAS ROAD DAMBARI KARAN", "LAYER": "BT ROAD", "Shape_Leng": 784.17050412000003 }, "geometry": { "type": "LineString", "coordinates": [ [ 81.306250725380991, 18.604821508703665 ], [ 81.306117722932669, 18.604866195547938 ], [ 81.305658880196646, 18.604931505823721 ], [ 81.305169935069927, 18.604993276811854 ], [ 81.304870546402924, 18.605022094647751 ], [ 81.304780004134003, 18.605113810721935 ], [ 81.304632374081677, 18.605347661075829 ], [ 81.304385450264249, 18.605734487531162 ], [ 81.304245200352824, 18.606021097424964 ], [ 81.304104332064426, 18.606242663786283 ], [ 81.303762921921845, 18.606647852559565 ], [ 81.30355644321142, 18.607016960636113 ], [ 81.303215569424367, 18.607613122446917 ], [ 81.302903153763907, 18.608118401808454 ], [ 81.302685977408743, 18.608472675847953 ], [ 81.302516973621536, 18.608921027947744 ], [ 81.3023551596917, 18.609273205320378 ], [ 81.302186191334002, 18.609657706554646 ], [ 81.302121764658565, 18.610087751231948 ] ] } },
{ "type": "Feature", "properties": { "NAME": "SAMALWAR PATEL PARA TO KALEPAL VILLAGE DAMBARI KARAN", "LAYER": "BT ROAD", "Shape_Leng": 1140.73224936 }, "geometry": { "type": "LineString", "coordinates": [ [ 81.318613779675033, 18.605061948597442 ], [ 81.318682327406265, 18.605389165048813 ], [ 81.318697444707922, 18.605461328158587 ], [ 81.318747906869589, 18.605623850967998 ], [ 81.318904710938867, 18.605788106765736 ], [ 81.319157636309853, 18.605852721611505 ], [ 81.319294127412959, 18.605883098867359 ], [ 81.319577145248971, 18.605945749089184 ], [ 81.319791849744036, 18.605956862877331 ], [ 81.320409631834252, 18.605823078311683 ], [ 81.321332811923114, 18.606272745194499 ], [ 81.322946492929219, 18.607651565118953 ], [ 81.323136573409755, 18.607666265561093 ], [ 81.323626006347951, 18.607624886310781 ], [ 81.323887937808379, 18.607606271542036 ], [ 81.32419567434178, 18.607422644022474 ], [ 81.324396659104821, 18.607323138065777 ], [ 81.324779166586808, 18.607286080268981 ], [ 81.32524668277253, 18.607331718552388 ], [ 81.325739714952206, 18.607405265914231 ], [ 81.32724434664398, 18.607884713497288 ], [ 81.328000456197643, 18.607906696119869 ] ] } },
{ "type": "Feature", "properties": { "NAME": "SAMALWAR PATEL PARA TO KALEPAL VILLAGE DAMBARI KARAN", "LAYER": "BT ROAD", "Shape_Leng": 1361.6134943500001 }, "geometry": { "type": "LineString", "coordinates": [ [ 81.333798552257335, 18.618289800806412 ], [ 81.332635029922315, 18.616815260973649 ], [ 81.332245249599609, 18.61628855147023 ], [ 81.332222341881632, 18.615393344597347 ], [ 81.332199954532655, 18.615036092788426 ], [ 81.332069040043166, 18.614479178324569 ], [ 81.331845853570456, 18.613958840238197 ], [ 81.331561014208702, 18.613640930098178 ], [ 81.331475236889446, 18.613501407029965 ], [ 81.331409099839092, 18.613235957187705 ], [ 81.331363521590589, 18.6129238561516 ], [ 81.331342128274727, 18.612664195846531 ], [ 81.331379555267731, 18.612523017917617 ], [ 81.330541426986883, 18.611982760638348 ], [ 81.330454754927544, 18.61178104946104 ], [ 81.330076610282532, 18.611152327668545 ], [ 81.329852003803623, 18.610730309541129 ], [ 81.329685672244622, 18.61024051297408 ], [ 81.329510015675979, 18.609841143607088 ], [ 81.329332526671806, 18.609377229160625 ], [ 81.329240660183231, 18.608988826887078 ], [ 81.328883091915245, 18.608632329066545 ], [ 81.328713262480775, 18.608395169843078 ], [ 81.328372062543849, 18.608046747656076 ], [ 81.328009548254087, 18.607892197878726 ] ] } },
{ "type": "Feature", "properties": { "NAME": "DEVA HOUSE CHOWK TO PATEL CHOWK DAMBARI KARAN", "LAYER": "BT ROAD", "Shape_Leng": 572.14808295199998 }, "geometry": { "type": "LineString", "coordinates": [ [ 81.312377626489805, 18.608133514499066 ], [ 81.312659001823803, 18.60808370290934 ], [ 81.312821465114411, 18.608052824501296 ], [ 81.312925756459805, 18.608029694776832 ], [ 81.313048035497332, 18.607968274333992 ], [ 81.313114177008515, 18.607929903614416 ], [ 81.313270564833175, 18.607868426314283 ], [ 81.313396884457987, 18.607822303229717 ], [ 81.313561360771928, 18.607795246913518 ], [ 81.313737868457522, 18.60776434433501 ], [ 81.313846179321416, 18.607745033483596 ], [ 81.313964557270836, 18.607744836166606 ], [ 81.314185360218616, 18.607798032986359 ], [ 81.314271653255787, 18.607807454190802 ], [ 81.314347875630418, 18.607795848749031 ], [ 81.314456218063441, 18.607793754835594 ], [ 81.314695012068441, 18.607810573294135 ], [ 81.314831479373694, 18.607827562543029 ], [ 81.314897750612857, 18.607859973384048 ], [ 81.315006138833482, 18.607882748568279 ], [ 81.315080365341956, 18.607876885282074 ], [ 81.315212707207863, 18.607832663947768 ], [ 81.315405198896201, 18.607765385338634 ], [ 81.315494946995912, 18.607707250069733 ], [ 81.315632672024265, 18.607627265512626 ], [ 81.315744894826864, 18.607553425441282 ], [ 81.315752879865911, 18.607531412119574 ], [ 81.315749762652686, 18.607473069694979 ], [ 81.315758735011499, 18.607442446047681 ], [ 81.315780743685252, 18.607408930984786 ], [ 81.315805765481031, 18.607377323904391 ], [ 81.315930921978591, 18.607245114382891 ], [ 81.316023052164866, 18.607156003551005 ], [ 81.316048031502334, 18.607101440056624 ], [ 81.316047849635666, 18.607002918915924 ], [ 81.316027563205552, 18.606882431576668 ], [ 81.31599631578429, 18.606802136419496 ], [ 81.315956029031071, 18.606716117307521 ], [ 81.315932846075171, 18.606656852024816 ], [ 81.31589463284287, 18.606607177139253 ], [ 81.31588849189805, 18.606541187631734 ], [ 81.315884336172374, 18.606463716566235 ], [ 81.315863150843597, 18.60639966532721 ], [ 81.315774117594231, 18.606263988930721 ], [ 81.315600642498325, 18.605964924992261 ] ] } },
{ "type": "Feature", "properties": { "NAME": "BHIMA HOUSE TO PUJARI HOUSE SARPANCH PARA CONCRETE ROAD", "LAYER": "CC ROAD", "Shape_Leng": 349.87548288199997 }, "geometry": { "type": "LineString", "coordinates": [ [ 81.315213870290563, 18.605001271185621 ], [ 81.315125432762017, 18.604905383516961 ], [ 81.314982698796555, 18.604752579199726 ], [ 81.314926443013633, 18.604710586424339 ], [ 81.314840908442306, 18.604649801707705 ], [ 81.31483999674289, 18.604616992061263 ], [ 81.314829781999023, 18.604517531135286 ], [ 81.314811569937277, 18.604433387882402 ], [ 81.314753205960159, 18.604335920458468 ], [ 81.314700804891885, 18.604207834434995 ], [ 81.314654261292233, 18.603991738833557 ], [ 81.314622054058418, 18.603934401475296 ], [ 81.314513531362735, 18.603837017743992 ], [ 81.314416962643918, 18.603693701064959 ], [ 81.314253836765602, 18.603361104546881 ], [ 81.314229221025926, 18.603269134711887 ], [ 81.31430382178101, 18.602970296608479 ], [ 81.314328487367106, 18.602743982868255 ], [ 81.314372685709245, 18.602606915310634 ], [ 81.314487059053533, 18.602532369485324 ], [ 81.314679474811271, 18.60242683100336 ], [ 81.314783720278811, 18.602380743894233 ] ] } },
{ "type": "Feature", "properties": { "NAME": "PUJARI HOUSE TO AVGATA ROAD CONCRETE ROAD", "LAYER": "CC ROAD", "Shape_Leng": 131.90041044899999 }, "geometry": { "type": "LineString", "coordinates": [ [ 81.314229221025926, 18.603269134711887 ], [ 81.314073145568585, 18.603296362596879 ], [ 81.313930782124828, 18.603344425889663 ], [ 81.313814480179701, 18.603380967425259 ], [ 81.313559617070624, 18.603350783238223 ], [ 81.313447096643969, 18.603261057684222 ], [ 81.313141641173587, 18.602993740272925 ] ] } },
{ "type": "Feature", "properties": { "NAME": "BANK TO IDIYA HOUSE CONCRETE ROAD", "LAYER": "CC ROAD", "Shape_Leng": 180.77852628100001 }, "geometry": { "type": "LineString", "coordinates": [ [ 81.314175087607268, 18.605957264954636 ], [ 81.314103223277712, 18.605474306901126 ], [ 81.314160459161826, 18.605230299042418 ], [ 81.314208062563722, 18.605109327529156 ], [ 81.314270022718006, 18.605014853403155 ], [ 81.314840908442306, 18.604649801707705 ] ] } },
{ "type": "Feature", "properties": { "NAME": "UPPER PRIMARY SCHOOL ROAD CONCRETE ROAD", "LAYER": "CC ROAD", "Shape_Leng": 26.089599435099998 }, "geometry": { "type": "LineString", "coordinates": [ [ 81.30798580015022, 18.606119171100747 ], [ 81.307762075603989, 18.606219653600906 ] ] } },
{ "type": "Feature", "properties": { "NAME": "VICHAPARA SCHOOL TO JOGA HOUSE CONCRETE ROAD", "LAYER": "CC ROAD", "Shape_Leng": 416.279652828 }, "geometry": { "type": "LineString", "coordinates": [ [ 81.305450937995701, 18.6039912164849 ], [ 81.305490065390885, 18.603861433908584 ], [ 81.305512525613111, 18.603798984550924 ], [ 81.305533491288628, 18.603742276734611 ], [ 81.305543180135899, 18.603690608938628 ], [ 81.305553568880399, 18.603609527016552 ], [ 81.30555193738752, 18.603538508052655 ], [ 81.305546522216261, 18.603455299595637 ], [ 81.30554416266493, 18.603397912221823 ], [ 81.305550119013958, 18.603362750448884 ], [ 81.305556084320898, 18.603332610391281 ], [ 81.305571048783165, 18.603285955764164 ], [ 81.305601774874233, 18.603217753863717 ], [ 81.3056362577328, 18.603146676302302 ], [ 81.305657230973353, 18.60309427279779 ], [ 81.30566167612281, 18.603055526522635 ], [ 81.305667514632958, 18.602954365052433 ], [ 81.305666639326233, 18.6028854970282 ], [ 81.30566796866502, 18.602787212433579 ], [ 81.305662476640961, 18.602660960694422 ], [ 81.305654742851431, 18.602543321271845 ], [ 81.305657634574388, 18.602477316692262 ], [ 81.305671694184767, 18.602345294101994 ], [ 81.305674533400477, 18.602249876612102 ], [ 81.305662786811325, 18.602202428361519 ], [ 81.305597708201276, 18.60192263223993 ], [ 81.305554406031419, 18.601773294053281 ], [ 81.305656762021769, 18.601541455957715 ], [ 81.305784863373589, 18.601255873084156 ], [ 81.305834829502444, 18.601148183445353 ], [ 81.305716325874499, 18.600794463302393 ], [ 81.305660955597958, 18.600684553318366 ], [ 81.305600659186013, 18.60062486862309 ], [ 81.305550083015007, 18.600390603183921 ] ] } },
{ "type": "Feature", "properties": { "NAME": "HIDIYA HOUSE TO SOMA HOUSE CONCRETE ROAD", "LAYER": "CC ROAD", "Shape_Leng": 386.64195418499997 }, "geometry": { "type": "LineString", "coordinates": [ [ 81.305957538824316, 18.604548523632154 ], [ 81.306358208156766, 18.603747409631961 ], [ 81.306447412383477, 18.603674012716777 ], [ 81.306556963987873, 18.603549848025654 ], [ 81.306604443721042, 18.603439781416224 ], [ 81.306713771264185, 18.60332667585374 ], [ 81.306854815449995, 18.603160456665872 ], [ 81.306873914237997, 18.603099021612479 ], [ 81.306857999724443, 18.602972320796791 ], [ 81.306802457633623, 18.602775546293294 ], [ 81.306710761680421, 18.602602110632475 ], [ 81.306620691284692, 18.60243771491557 ], [ 81.306496739229175, 18.602308203544673 ], [ 81.306386660896493, 18.602179252409172 ], [ 81.306352000163173, 18.602150613178861 ], [ 81.306242129857566, 18.602137878808868 ], [ 81.306111236578218, 18.602149569801583 ], [ 81.30604507088502, 18.602174068574367 ], [ 81.305972893835431, 18.602202881428969 ], [ 81.305914210880175, 18.602204411518933 ], [ 81.305872064874308, 18.602197306058088 ], [ 81.305831387757678, 18.602170111280266 ], [ 81.305778709321501, 18.602163501158035 ], [ 81.305662786811325, 18.602202428361519 ] ] } },
{ "type": "Feature", "properties": { "NAME": "PDS BUILDING TO SOMA HOUSE CONCRETE ROAD", "LAYER": "CC ROAD", "Shape_Leng": 151.449285215 }, "geometry": { "type": "LineString", "coordinates": [ [ 81.304333514744457, 18.602650071010785 ], [ 81.30446675674564, 18.602628103760267 ], [ 81.304667344723342, 18.602601475130648 ], [ 81.304840281514231, 18.602539021532603 ], [ 81.30492902232929, 18.602516399677359 ], [ 81.30498019693708, 18.602523490730867 ], [ 81.305058429113146, 18.602514755370905 ], [ 81.305103536119049, 18.602494595392894 ], [ 81.305255406863893, 18.602432653796093 ], [ 81.30538622623034, 18.602379354888804 ], [ 81.305532008623658, 18.602278683875625 ], [ 81.305662786811325, 18.602202428361519 ] ] } },
{ "type": "Feature", "properties": { "NAME": "SUDHRU HOUSE TO KUTREM ROAD CONCRETE", "LAYER": "CC ROAD", "Shape_Leng": 339.18648991100002 }, "geometry": { "type": "LineString", "coordinates": [ [ 81.303242043793702, 18.60214619072779 ], [ 81.303198023125844, 18.602151650914909 ], [ 81.303137849784136, 18.602161312961627 ], [ 81.30306059713277, 18.602156654662974 ], [ 81.302906277948466, 18.602323456976887 ], [ 81.302856167967974, 18.602351037507987 ], [ 81.302812293973872, 18.602359477594938 ], [ 81.302740817935799, 18.602359592481701 ], [ 81.302607872230624, 18.602345458294291 ], [ 81.30241601973043, 18.60234815769892 ], [ 81.302348406913339, 18.602405657455837 ], [ 81.30231712530545, 18.602443968476713 ], [ 81.302239402608947, 18.602457245353786 ], [ 81.302166655682939, 18.602447796858726 ], [ 81.30199817721045, 18.602194589140169 ], [ 81.301907676775684, 18.60207277785657 ], [ 81.3019088039472, 18.601960994396844 ], [ 81.301866690099885, 18.601585018115383 ], [ 81.301803309444722, 18.601197728869952 ], [ 81.301699659331391, 18.600729199832326 ], [ 81.301757958501412, 18.600643416960747 ] ] } },
{ "type": "Feature", "properties": { "NAME": "JOGA HOUSE TO SANTU HOUSE CONCRETE ROAD", "LAYER": "CC ROAD", "Shape_Leng": 391.20087041 }, "geometry": { "type": "LineString", "coordinates": [ [ 81.304813625256273, 18.603331085005571 ], [ 81.304659917654192, 18.603360724996115 ], [ 81.304570955767844, 18.603400325317729 ], [ 81.304473252166162, 18.603460265780317 ], [ 81.304126917178635, 18.603832235279935 ], [ 81.304030162827686, 18.603921306784013 ], [ 81.303908643778641, 18.603987263646655 ], [ 81.30382719889154, 18.604023264541699 ], [ 81.303699341943215, 18.604050970690242 ], [ 81.303617843981826, 18.604057080328126 ], [ 81.303525011468466, 18.604035708243227 ], [ 81.303389518318198, 18.604000057029779 ], [ 81.303333072385939, 18.603990582738806 ], [ 81.303289187410087, 18.603993044707316 ], [ 81.303203980452537, 18.604029051392164 ], [ 81.303133823311569, 18.604066229468824 ], [ 81.302969191924532, 18.604185529949032 ], [ 81.30269281775935, 18.604457378814317 ], [ 81.302340627051223, 18.604848449738739 ], [ 81.302298878478794, 18.604893765628525 ], [ 81.302302771481536, 18.605389382209957 ] ] } },
{ "type": "Feature", "properties": { "NAME": "VIJAY HOUSE TO BHIMA HOUSE CONCRETE ROAD", "LAYER": "CC ROAD", "Shape_Leng": 219.09133253100001 }, "geometry": { "type": "LineString", "coordinates": [ [ 81.302166655682939, 18.602447796858726 ], [ 81.302233219388313, 18.602648439778665 ], [ 81.302298602999542, 18.602748769494625 ], [ 81.302349617133686, 18.602807035357475 ], [ 81.302454232349035, 18.602826236945319 ], [ 81.302654501464488, 18.602902676025575 ], [ 81.302841378846949, 18.60306450585362 ], [ 81.302957578255928, 18.603252275224769 ], [ 81.302993389920061, 18.603364608748098 ], [ 81.30303127569529, 18.60351519973365 ], [ 81.303289187410087, 18.603993044707316 ] ] } },
{ "type": "Feature", "properties": { "NAME": "DEVA HOUSE TO HIDIYA HOUSE CONCRETE ROAD", "LAYER": "CC ROAD", "Shape_Leng": 464.66808811200002 }, "geometry": { "type": "LineString", "coordinates": [ [ 81.331214258987899, 18.585851937723454 ], [ 81.331967313870209, 18.58584653061931 ], [ 81.332210079763357, 18.58585758119527 ], [ 81.332502821219649, 18.58577671741687 ], [ 81.332493035394052, 18.585902995289299 ], [ 81.332521422030283, 18.586057901422983 ], [ 81.332559679879736, 18.586130529436453 ], [ 81.33262002025954, 18.586210770636441 ], [ 81.332734549051679, 18.586302394413032 ], [ 81.332831018882402, 18.586392136963862 ], [ 81.332941550464639, 18.586491419824664 ], [ 81.333017858618987, 18.586529545821122 ], [ 81.333160302964203, 18.586533120202859 ], [ 81.333301668368719, 18.586494262699926 ], [ 81.333811465158959, 18.586373725122431 ], [ 81.333984964201917, 18.586362781935417 ], [ 81.334136537961598, 18.586376126306767 ], [ 81.334242978558606, 18.586436904990425 ], [ 81.334313826709646, 18.586527733793179 ], [ 81.334463897656562, 18.58676462913035 ], [ 81.334653856775788, 18.587122344394441 ] ] } },
{ "type": "Feature", "properties": { "NAME": "HURRA HOUSE TO SANU HOUSE CONCRETE ROAD", "LAYER": "CC ROAD", "Shape_Leng": 207.767494618 }, "geometry": { "type": "LineString", "coordinates": [ [ 81.334157475488666, 18.586383858225759 ], [ 81.334511182704432, 18.585945630834875 ], [ 81.334563340827629, 18.585861849451696 ], [ 81.334564055721501, 18.585519136767317 ], [ 81.334574714085917, 18.585328560534421 ], [ 81.33462573102409, 18.584636468371684 ] ] } },
{ "type": "Feature", "properties": { "NAME": "ARJUN HOUSE TO MALLA HOUSE CONCRETE ROAD", "LAYER": "CC ROAD", "Shape_Leng": 151.22507647899999 }, "geometry": { "type": "LineString", "coordinates": [ [ 81.332502821219649, 18.58577671741687 ], [ 81.332711530291022, 18.585688938495576 ], [ 81.332656875435163, 18.585388258010788 ], [ 81.332578919447712, 18.58527600447513 ], [ 81.332486001013123, 18.585206820687532 ], [ 81.332363027680628, 18.585156820239757 ], [ 81.332260078712054, 18.585087654021535 ], [ 81.332166998335538, 18.584934774866028 ], [ 81.332161506822331, 18.584762175367729 ] ] } },
{ "type": "Feature", "properties": { "NAME": "BHIMA HOUSE TO ARJU HOUSE CONCRETE ROAD", "LAYER": "CC ROAD", "Shape_Leng": 371.67578273100003 }, "geometry": { "type": "LineString", "coordinates": [ [ 81.315213870290563, 18.605001271185621 ], [ 81.315280979565728, 18.604944580460959 ], [ 81.315422360456949, 18.604896516950664 ], [ 81.31550198685909, 18.604827514206349 ], [ 81.315601188532568, 18.604765652522808 ], [ 81.315638802693258, 18.60476271993474 ], [ 81.31567793750105, 18.604768393462901 ], [ 81.315739651919145, 18.60477833346906 ], [ 81.315817900380182, 18.604778202280915 ], [ 81.315905206626041, 18.604793838434173 ], [ 81.315958217740018, 18.604718124524066 ], [ 81.315993397969436, 18.604663593956406 ], [ 81.316151341235141, 18.604441904668089 ], [ 81.316221837798921, 18.604318395355332 ], [ 81.316354276261151, 18.604125872944895 ], [ 81.316450803454899, 18.604203246536038 ], [ 81.31651684331365, 18.60427115253313 ], [ 81.316508278709989, 18.604335370713024 ], [ 81.316523476737672, 18.604416649299552 ], [ 81.316586922208998, 18.604549020566772 ], [ 81.316701501011423, 18.604665523273351 ], [ 81.316786478039788, 18.604777771360748 ], [ 81.316973399842567, 18.604955369424886 ], [ 81.316981715728815, 18.605112224550261 ], [ 81.317029194489805, 18.605289818044415 ], [ 81.317075322831215, 18.605415283511025 ], [ 81.317099637179055, 18.605543655248656 ], [ 81.317088337564144, 18.60568757241073 ], [ 81.31708390023897, 18.605712064818125 ] ] } },
{ "type": "Feature", "properties": { "NAME": "RAJU HOUSE TO MOTU HOUSE CONCRETE ROAD", "LAYER": "CC ROAD", "Shape_Leng": 241.609326783 }, "geometry": { "type": "LineString", "coordinates": [ [ 81.318110785809637, 18.605184143309319 ], [ 81.318150906456026, 18.604571462979834 ], [ 81.318187239149012, 18.604323553718828 ], [ 81.318153215363068, 18.604129057420113 ], [ 81.318115194717336, 18.604046467712294 ], [ 81.318261661582156, 18.603712451238735 ], [ 81.318422657303145, 18.603235318430279 ], [ 81.318476525995052, 18.60307449541471 ] ] } },
{ "type": "Feature", "properties": { "NAME": "BUDHRAM HOUSE TO UNGA HOUSE CONCRETE ROAD", "LAYER": "CC ROAD", "Shape_Leng": 257.13132086500002 }, "geometry": { "type": "LineString", "coordinates": [ [ 81.314956201935658, 18.605851927187043 ], [ 81.314960530792078, 18.605994656376826 ], [ 81.314965189319295, 18.606345691081788 ], [ 81.314933118759257, 18.606362962055364 ], [ 81.314840868812567, 18.606387029268504 ], [ 81.314725626232033, 18.606455134737356 ], [ 81.314647443979908, 18.606500721871509 ], [ 81.31460538515627, 18.606532813676786 ], [ 81.314598440117791, 18.606574912116262 ], [ 81.314793341151855, 18.607000237407082 ], [ 81.315027176433063, 18.607562420695352 ], [ 81.314831479373694, 18.607827562543029 ] ] } },
{ "type": "Feature", "properties": { "NAME": "RAJU HOUSE TO UNGA HOUSE CONCRETE ROAD", "LAYER": "CC ROAD", "Shape_Leng": 272.67685469899999 }, "geometry": { "type": "LineString", "coordinates": [ [ 81.31104499321637, 18.606271942551793 ], [ 81.311099062653952, 18.606353157389293 ], [ 81.311120473972125, 18.606404534933706 ], [ 81.311160925552144, 18.606582619826302 ], [ 81.311174778174674, 18.606614879465017 ], [ 81.311238866713907, 18.606688903808195 ], [ 81.311282860926298, 18.60674622225476 ], [ 81.311323097525104, 18.606805938200061 ], [ 81.311369628058685, 18.606878795870045 ], [ 81.311402347254784, 18.606942111172408 ], [ 81.311455215279352, 18.60705202346038 ], [ 81.311480434472259, 18.607128503289655 ], [ 81.31149936410965, 18.60719423267669 ], [ 81.311501943897539, 18.607233684827026 ], [ 81.311498292840852, 18.607294668965256 ], [ 81.311491474149022, 18.60733772360739 ], [ 81.311465350030716, 18.60745314694233 ], [ 81.311442297809592, 18.607533891372317 ], [ 81.311416761484537, 18.607627792045491 ], [ 81.311391901064695, 18.607748593698535 ], [ 81.311360645742084, 18.607885214419401 ], [ 81.31135024200988, 18.607941162057084 ], [ 81.311344025255053, 18.607970465733889 ], [ 81.311345574419562, 18.607994854410862 ], [ 81.311359190745691, 18.608035005702792 ], [ 81.311408231390189, 18.60810881571825 ], [ 81.311444429001142, 18.608153951386612 ], [ 81.311476112204915, 18.608199094514312 ], [ 81.311503256196914, 18.608230614747463 ], [ 81.311536399854376, 18.608251364211426 ], [ 81.311561254012418, 18.608264953490764 ], [ 81.31159362047039, 18.608272073833135 ], [ 81.311771259833421, 18.60831123623872 ], [ 81.311793845044718, 18.6083183727395 ], [ 81.311825463002847, 18.608346054472566 ] ] } },
{ "type": "Feature", "properties": { "NAME": "PATEL PARA ANGANWADI CHOWK VIA VICHAPARA TO KUTREM ROAD DAMBRIKA KARAN MARG", "LAYER": "BT ROAD", "Shape_Leng": 3048.7028474600002 }, "geometry": { "type": "LineString", "coordinates": [ [ 81.312817801927721, 18.606663019048344 ], [ 81.312767263806791, 18.606617573784256 ], [ 81.312718296832287, 18.606584176926447 ], [ 81.312617881147744, 18.606531735078907 ], [ 81.312474820979332, 18.606474581338979 ], [ 81.312353120249327, 18.60644010939707 ], [ 81.312256523435167, 18.606418747895063 ], [ 81.312118544840899, 18.60639745492762 ], [ 81.311909097338898, 18.606381062830565 ], [ 81.31176739166699, 18.60637890616281 ], [ 81.311616908039213, 18.606376763912401 ], [ 81.311490241597639, 18.606369799555253 ], [ 81.311445093466631, 18.606367482922565 ], [ 81.311367324100559, 18.606355655020081 ], [ 81.31128578406836, 18.606339050721015 ], [ 81.311236865272605, 18.606331957673859 ], [ 81.311147790438056, 18.606309387520504 ], [ 81.311044993216385, 18.6062719425518 ], [ 81.310963351327871, 18.606253496628288 ], [ 81.310888083516915, 18.606238077448733 ], [ 81.310819105218201, 18.606233408702018 ], [ 81.310669882219372, 18.606234850560195 ], [ 81.310496857198785, 18.606249483683825 ], [ 81.310231053973752, 18.606273834691361 ], [ 81.3101219847035, 18.606289557760878 ], [ 81.309950259019757, 18.606329296878524 ], [ 81.309773543236076, 18.606383391839547 ], [ 81.309615661041292, 18.606450607817216 ], [ 81.309526683613839, 18.606481840953165 ], [ 81.309476543265163, 18.606492684195363 ], [ 81.309435174393315, 18.60649992606503 ], [ 81.309402561877633, 18.606495197047661 ], [ 81.30930848416584, 18.606479808137344 ], [ 81.309211874728092, 18.606451271193951 ], [ 81.309109001824623, 18.606426331428676 ], [ 81.309004874955846, 18.606401393664125 ], [ 81.308903264733644, 18.606381234311229 ], [ 81.308779093420711, 18.606367090140569 ], [ 81.308698818388734, 18.606356460891185 ], [ 81.308587195668892, 18.606347078622377 ], [ 81.308483112003913, 18.606346053484707 ], [ 81.308395304419591, 18.606330653845614 ], [ 81.308267482800076, 18.606277970763553 ], [ 81.308163546250469, 18.606219314905065 ], [ 81.307985800150249, 18.60611917110074 ], [ 81.307761343866844, 18.605984668753425 ], [ 81.307569980398327, 18.605842938195433 ], [ 81.30748257125164, 18.605769907166437 ], [ 81.307274560329731, 18.605575116634348 ], [ 81.307104280150909, 18.605441959865672 ], [ 81.307006319907373, 18.605358902354048 ], [ 81.306824030165245, 18.605241547474737 ], [ 81.306679416767082, 18.605155696223051 ], [ 81.306534762416433, 18.605046888449468 ], [ 81.306307227238491, 18.604872215499629 ], [ 81.306144449314516, 18.60472613261587 ], [ 81.305957538824316, 18.604548523632154 ], [ 81.305787201754583, 18.60438236578765 ], [ 81.305674130970033, 18.604263462591625 ], [ 81.305597215887076, 18.604167457145415 ], [ 81.305450937995701, 18.6039912164849 ], [ 81.305316765087156, 18.603852260362519 ], [ 81.305199149983736, 18.603716146871683 ], [ 81.305113196572421, 18.603614416740093 ], [ 81.305000157430271, 18.603512730427056 ], [ 81.304945883564216, 18.603455427097984 ], [ 81.304804197867497, 18.603322221875025 ], [ 81.304676073151384, 18.603199038067675 ], [ 81.304581086618143, 18.603094452730755 ], [ 81.304473993213492, 18.602951147847495 ], [ 81.30437290883836, 18.602802094068238 ], [ 81.304333514744457, 18.602650071010785 ], [ 81.304329652414822, 18.602638441864304 ], [ 81.304126087613383, 18.602568025720121 ], [ 81.303951341877934, 18.602459264464724 ], [ 81.303781164084626, 18.60238062606463 ], [ 81.303574859535303, 18.602294871830658 ], [ 81.303341444144905, 18.602194813222251 ], [ 81.303242043793702, 18.60214619072779 ], [ 81.303206677505287, 18.602093399234104 ], [ 81.303177197015131, 18.602065947399904 ], [ 81.303067189863384, 18.601975733246849 ], [ 81.30300542889556, 18.601938528307851 ], [ 81.302913588087733, 18.601909980403374 ], [ 81.302850264066777, 18.601839777973147 ], [ 81.302789911554882, 18.601748049035432 ], [ 81.302670767262285, 18.601596153762852 ], [ 81.302584859512109, 18.601518813619595 ], [ 81.30246128999697, 18.601417142637956 ], [ 81.30234675419149, 18.60131832663491 ], [ 81.302209568803264, 18.601175068694005 ], [ 81.302003028658746, 18.600954443684394 ], [ 81.301810008993456, 18.600720883748263 ], [ 81.301719486738506, 18.600586159350883 ], [ 81.301634988648928, 18.600454294822594 ], [ 81.301514306185638, 18.600282314303179 ], [ 81.301443378838073, 18.60016621055119 ], [ 81.301325734014597, 18.600010007631184 ], [ 81.30122313172923, 18.599850911019242 ], [ 81.301099377584322, 18.599643065596808 ], [ 81.301047956851335, 18.599495365319768 ], [ 81.301020657315405, 18.599373452546249 ], [ 81.300998917873429, 18.598990400710761 ], [ 81.30100327826284, 18.598902872091372 ], [ 81.301067701670306, 18.598743508438449 ], [ 81.301172331278551, 18.598639747616339 ], [ 81.3012579448, 18.598532752258329 ], [ 81.301261115092288, 18.59831377063513 ], [ 81.301146141538197, 18.59813407525596 ], [ 81.300980161773381, 18.597955756430608 ], [ 81.300819044917361, 18.597675460541911 ], [ 81.300805870388544, 18.597495001346779 ], [ 81.300842083829039, 18.597296778688836 ], [ 81.30100554139365, 18.597155683373504 ], [ 81.301214809681554, 18.596885985638131 ], [ 81.301238292278867, 18.596591989745537 ], [ 81.301238748086305, 18.59628305653824 ], [ 81.301173939706175, 18.595957225407243 ], [ 81.301128386421723, 18.595750772313735 ], [ 81.301092528291676, 18.595446448631495 ], [ 81.30106789036904, 18.595100867617624 ], [ 81.301008716049623, 18.594681305356133 ], [ 81.300967937460825, 18.594231969687623 ], [ 81.301000250893068, 18.593923255750042 ], [ 81.301021879499416, 18.593726329741781 ], [ 81.300950112703859, 18.59322244418254 ], [ 81.300912046786976, 18.592753892964719 ], [ 81.300884009133526, 18.592416000434177 ], [ 81.300870812299692, 18.59193109138381 ], [ 81.300792190709245, 18.591520343048995 ], [ 81.300696282941416, 18.591098102428251 ], [ 81.300499035746867, 18.590407529292001 ], [ 81.300331894104687, 18.589916284004424 ], [ 81.300200699982497, 18.589535390187496 ], [ 81.299937609129131, 18.588834161438427 ], [ 81.29982487013632, 18.58832303581757 ], [ 81.299667718732721, 18.586826783324078 ] ] } },
{ "type": "Feature", "properties": { "NAME": "SUKHMAN HOUSE TO MADAKAMIRAS ROAD DAMBARI KARAN", "LAYER": "BT ROAD", "Shape_Leng": 486.467464511 }, "geometry": { "type": "LineString", "coordinates": [ [ 81.308136490817176, 18.609444160569776 ], [ 81.309494211863878, 18.609032381643868 ], [ 81.309624542783354, 18.608984341440088 ], [ 81.309756900817987, 18.608947776042346 ], [ 81.309915366502054, 18.608924558855705 ], [ 81.310109999685992, 18.608929977554169 ], [ 81.310216350373764, 18.608935541503278 ], [ 81.310302591782758, 18.60891626903215 ], [ 81.310392880697677, 18.608916120232752 ], [ 81.310559503814503, 18.608965584511509 ], [ 81.310659849158469, 18.608978810266088 ], [ 81.310782209582612, 18.608961391025034 ], [ 81.310916643248248, 18.608963082153018 ], [ 81.310988863970039, 18.608957223783943 ], [ 81.311031970733254, 18.608939935247385 ], [ 81.311073292322348, 18.608906388825794 ], [ 81.311149663218458, 18.608838110670575 ], [ 81.311309972378666, 18.608725454735222 ], [ 81.311376334935474, 18.608670345171067 ], [ 81.311529150188989, 18.608574440525654 ], [ 81.311629375229643, 18.608521666149716 ], [ 81.311659425751756, 18.608496507793848 ], [ 81.311705730492378, 18.608445018255335 ], [ 81.311731076279258, 18.608418672026577 ], [ 81.311842276765475, 18.608333118591915 ], [ 81.311875332921844, 18.608305803056883 ], [ 81.311896372810736, 18.608290703036147 ], [ 81.311922682142935, 18.608277029063711 ], [ 81.311981563810562, 18.608247811618568 ], [ 81.312297155899174, 18.608153734863166 ], [ 81.312377626489805, 18.608133514499066 ] ] } },
{ "type": "Feature", "properties": { "NAME": "SAMALWAR MAIN ROAD TO KOSA HOUSE CONCRETE ROAD", "LAYER": "CC ROAD", "Shape_Leng": 150.13240942799999 }, "geometry": { "type": "LineString", "coordinates": [ [ 81.3122007814125, 18.609299632881825 ], [ 81.312292716561146, 18.609394657876297 ], [ 81.312326673156889, 18.609448405749152 ], [ 81.312415954892032, 18.609583365942573 ], [ 81.31247380992356, 18.609676530540298 ], [ 81.312521528093072, 18.60971232080961 ], [ 81.312658454117795, 18.609842419207279 ], [ 81.312716219817204, 18.609886562282473 ], [ 81.312795316992293, 18.609937843797901 ], [ 81.312863103994388, 18.609975991937219 ], [ 81.312925859644835, 18.610005778873099 ], [ 81.312974825462419, 18.610037980004943 ], [ 81.31299243859111, 18.610069037591249 ], [ 81.313008854548528, 18.610131184026912 ], [ 81.313014023676459, 18.610214870829367 ], [ 81.313016735051406, 18.610326061631518 ] ] } },
{ "type": "Feature", "properties": { "NAME": "PRIMERY SCHOOL BOUNDARY AT PATEL PARA", "LAYER": "BOUNDARY WALL", "Shape_Leng": 143.956674271 }, "geometry": { "type": "LineString", "coordinates": [ [ 81.312516156784312, 18.607134055559147 ], [ 81.312299090565105, 18.606928764015688 ], [ 81.312554357844959, 18.606627993524949 ], [ 81.312712590159975, 18.606753034871076 ], [ 81.312630913226826, 18.606867653860057 ], [ 81.312585947445967, 18.606965293452443 ], [ 81.312548479415597, 18.607048572803535 ], [ 81.312516156784312, 18.607134055559147 ] ] } },
{ "type": "Feature", "properties": { "NAME": "ANGANWADI BOUNDARY AT PATEL PARA", "LAYER": "BOUNDARY WALL", "Shape_Leng": 44.383975419400002 }, "geometry": { "type": "LineString", "coordinates": [ [ 81.312554357844959, 18.606627993524949 ], [ 81.312620841528144, 18.606548312738028 ], [ 81.312695655189515, 18.606589557992809 ], [ 81.312778691242869, 18.606672598432432 ], [ 81.312712590159975, 18.606753034871076 ] ] } },
{ "type": "Feature", "properties": { "NAME": "PRIMERY SCHOOL BOUNDARY AT VICHAPARA", "LAYER": "BOUNDARY WALL", "Shape_Leng": 123.83392710299999 }, "geometry": { "type": "LineString", "coordinates": [ [ 81.305482137414387, 18.603989250828093 ], [ 81.305716293883648, 18.603799958227761 ], [ 81.30588905079675, 18.604009074096187 ], [ 81.30564427393918, 18.604198226538664 ], [ 81.305481824453324, 18.603989550248155 ] ] } },
{ "type": "Feature", "properties": { "NAME": "Boundary Wall At Vichapara Angnwadi", "LAYER": "BOUNDARY WALL", "Shape_Leng": 56.366624092499997 }, "geometry": { "type": "LineString", "coordinates": [ [ 81.305430318305369, 18.603761683106519 ], [ 81.305505416053563, 18.603682648418062 ], [ 81.305391753274307, 18.603582995960842 ], [ 81.305315401541108, 18.603662032637544 ], [ 81.305430318305369, 18.603761683106519 ] ] } },
{ "type": "Feature", "properties": { "NAME": "ANGANWADI BOUNDARY AT SARPANCH PARA", "LAYER": "BOUNDARY WALL", "Shape_Leng": 83.851750063799997 }, "geometry": { "type": "LineString", "coordinates": [ [ 81.315179891771123, 18.605803147836919 ], [ 81.315196151256544, 18.605643860198249 ], [ 81.315409871802316, 18.60566574147747 ], [ 81.315406421707635, 18.605835051130818 ], [ 81.315377800354753, 18.605818599105884 ], [ 81.315352951545322, 18.605807879874298 ], [ 81.315329619416588, 18.605803614603811 ], [ 81.31529951574683, 18.605799360666726 ], [ 81.315265656715212, 18.605798699957532 ], [ 81.315224273748072, 18.605798051835155 ], [ 81.315180267307653, 18.605802788513817 ] ] } },
{ "type": "Feature", "properties": { "NAME": "MIDDLE SCHOLL BOUNDARY", "LAYER": "BOUNDARY WALL", "Shape_Leng": 120.58973329600001 }, "geometry": { "type": "LineString", "coordinates": [ [ 81.307507686451757, 18.606402207739254 ], [ 81.307482093377303, 18.606116489295587 ], [ 81.307749966865529, 18.606106630054523 ], [ 81.307780576362788, 18.606392340258498 ], [ 81.307507749580964, 18.606402446766076 ] ] } },
{ "type": "Feature", "properties": { "NAME": "SCHOOL BOUNDARY AT AVGATA PARA", "LAYER": "BOUNDARY WALL", "Shape_Leng": 119.283429071 }, "geometry": { "type": "LineString", "coordinates": [ [ 81.333184389805027, 18.584272125026921 ], [ 81.333260729369258, 18.584028297682245 ], [ 81.333545896114572, 18.58414652778286 ], [ 81.333434155070762, 18.58438673132061 ], [ 81.333184389805027, 18.584272125026921 ] ] } }
]
}
